#aV2020 10  9  0  0  0.00000000     288 DD+AD WGS84 FIT  NGA
## 2126 432000.00000000   300.00000000 59131 0.0000000000000
+   31     1  2  3  4  5  6  7  8  9 10 11 12 13 15 16 17 18
+         19 20 21 22 23 24 25 26 27 28 29 30 31 32  0  0  0
+          0  0  0  0  0  0  0  0  0  0  0  0  0  0  0  0  0
+          0  0  0  0  0  0  0  0  0  0  0  0  0  0  0  0  0
+          0  0  0  0  0  0  0  0  0  0  0  0  0  0  0  0  0
++         2  2  2  2  2  2  2  2  2  2  2  2  2  2  2  2  2
++         2  2  2  2  2  2  2  2  2  2  2  2  2  2  0  0  0
++         0  0  0  0  0  0  0  0  0  0  0  0  0  0  0  0  0
++         0  0  0  0  0  0  0  0  0  0  0  0  0  0  0  0  0
++         0  0  0  0  0  0  0  0  0  0  0  0  0  0  0  0  0
%c cc cc ccc ccc cccc cccc cccc cccc ccccc ccccc ccccc ccccc
%c cc cc ccc ccc cccc cccc cccc cccc ccccc ccccc ccccc ccccc
%f  0.0000000  0.000000000  0.00000000000  0.000000000000000
%f  0.0000000  0.000000000  0.00000000000  0.000000000000000
%i    0    0    0    0      0      0      0      0         0
%i    0    0    0    0      0      0      0      0         0
/*      NGA, ST. LOUIS,MO.                                  
/*   EPHEMERIS COMPUTED FROM 2 DAYS OF DATA                 
/*   EPOCHA v5 SMOOTHER                                     
/*   G1762 IERS2010 SATAF SATAPC                            
*  2020 10  9 18 45  0.00000000
P  1 -14326.486293  20645.527414   7827.984999     33.656169                    
V  1   1855.434475 -10425.532667  30303.362965     -0.018441                    
P  2  15863.187040  -2286.133917 -20534.195543   -527.415196                    
V  2  -7774.494509  26465.538745  -8711.361972     -0.049878                    
P  3 -17901.487799  12788.031917 -14892.189736   -321.748782                    
V  3 -18888.130745    557.214394  23407.841364     -0.103587                    
P  4  -7798.028433  14274.551474 -20983.237108   -143.546249                    
V  4 -16231.222625 -21173.557132  -8408.217642     -0.039407                    
P  5  26344.701323  -1643.566387  -3918.030251    -23.004205                    
V  5  -4225.223065   3583.116009 -30953.408180     -0.009039                    
P  6   9157.174898  13968.458230 -20587.600071   -332.042580                    
V  6 -10678.370188  23956.659772  11509.446843     -0.026061                    
P  7  -4193.546156  24780.224313   8102.580027   -389.945329                    
V  7  -6818.910725   7977.075394 -29574.169976     -0.079916                    
P  8 -15198.119944   4480.150379  21369.598744    -50.874698                    
V  8 -16522.351458 -21400.492012  -7007.829217     -0.013731                    
P  9   3605.193515  21625.748203 -15040.034272   -297.819157                    
V  9 -13592.375452 -13485.363910 -22753.221399     -0.052988                    
P 10 -12322.393619 -12364.188344  20179.778370   -475.541418                    
V 10  24978.404545  -4342.880660  12397.023536     -0.095373                    
P 11 -12587.890434  14660.370457  17896.113460   -141.547456                    
V 11  -4146.900621 -23454.107173  15526.394596      0.105687                    
P 12  20159.275053 -10607.047288 -13763.696174     56.303170                    
V 12  17199.942593    764.870706  25172.914013     -0.050912                    
P 13  18036.726674   5445.454325  18637.056681     53.131967                    
V 13  10915.199718  21272.989562 -16554.467919      0.037002                    
P 15  14769.813246  -6943.763257  20662.453640   -198.080901                    
V 15  18360.941928  19934.472295  -5950.496073      0.025919                    
P 16 -26725.520474   -348.993538  -2283.142210   -220.160487                    
V 16   2502.106837  -2030.648077 -31630.201402     -0.051655                    
P 17  15125.167736  21849.717500   -244.208568    337.518774                    
V 17  -1234.608603   1851.247094  32226.691176      0.054249                    
P 18   4056.097542 -24661.534629   8905.809326    304.323029                    
V 18   6816.012625  -9389.042233 -29113.947174      0.061114                    
P 19  17673.449575  18267.061384  -8117.087583    -93.981929                    
V 19   3591.452514   9385.679476  29938.634043      0.050378                    
P 20    383.083466 -16165.621785  20961.904848    526.458545                    
V 20  26146.669926  -6497.507654  -5718.997884     -0.001361                    
P 21 -16934.988454   4917.843913  20530.823251     55.993803                    
V 21   6629.400969 -23637.419028  11884.242928      0.040409                    
P 22 -23040.549290  10764.808074  -7191.034446   -745.271041                    
V 22 -10048.292467  -1467.507461  29355.224928      0.045214                    
P 23   -833.166157 -15218.396404  21718.558818     82.722602                    
V 23  27331.859531  -4212.048195  -1918.684688      0.067453                    
P 24  14811.821184 -18764.835279  10941.069685    -19.568524                    
V 24  -1336.121009  14741.085257  26956.614712     -0.004309                    
P 25   8325.629620 -15296.428573 -20216.649381      2.806407                    
V 25  25137.960687  -2242.665144  12452.131087      0.058849                    
P 26 -21844.057901  -6414.026313 -13907.967546    292.540060                    
V 26  16885.618412  -5342.589201 -23875.665197      0.062839                    
P 27 -19670.334553  -7529.649271  16240.236808   -414.651361                    
V 27 -11595.111324 -17229.790287 -21506.001870     -0.087012                    
P 28  12476.917682  13049.039955  20008.658265    669.585980                    
V 28 -24097.284185   1979.641422  14308.546733     -0.044053                    
P 29    119.848998 -20309.510948 -17129.593084   -212.078208                    
V 29  13078.825958  17287.651041 -20496.027829     -0.079222                    
P 30   3360.675474  20987.528623  15841.670360   -316.914910                    
V 30 -10507.589313  17407.346444 -21116.159373     -0.069272                    
P 31 -11008.810622 -11810.914386 -21062.863470    -73.885958                    
V 31  11620.448114 -24083.794712   7905.366433     -0.024380                    
P 32 -16823.161983 -20647.485042   -700.054054    355.807396                    
V 32   1595.616149  -2508.713657  31557.736089      0.041434                    
EOF
